{
  "norad_id": 65098,
  "name": "STARLINK-34764",
  "history": [
    {
      "epoch": "2026-04-11T19:50:35.700576Z",
      "apogee_km": 475.80902832144056,
      "perigee_km": 474.54527719167163,
      "latitude_deg": -5.2608736346056825e-06,
      "longitude_deg": 95.01953181537795,
      "height_km": 476.12411639219516,
      "semi_major_axis_km": 6853.314152756556,
      "eccentricity": 9.22e-05,
      "inclination_deg": 53.1589,
      "raan_deg": 232.709,
      "arg_perigee_deg": 94.4048,
      "mean_anomaly_deg": 265.7058,
      "mean_motion_rev_day": 15.30212699
    },
    {
      "epoch": "2026-04-13T01:37:36.507360Z",
      "apogee_km": 476.0316147757876,
      "perigee_km": 474.4051764732976,
      "latitude_deg": 2.7602883142344276e-05,
      "longitude_deg": 1.27972672107791,
      "height_km": 476.131225278299,
      "semi_major_axis_km": 6853.355395624542,
      "eccentricity": 0.00011866,
      "inclination_deg": 53.1586,
      "raan_deg": 226.9457,
      "arg_perigee_deg": 91.0425,
      "mean_anomaly_deg": 269.0712,
      "mean_motion_rev_day": 15.30198886
    },
    {
      "epoch": "2026-04-14T15:14:53.090016Z",
      "apogee_km": 475.9510357877334,
      "perigee_km": 474.48167682814164,
      "latitude_deg": -1.3930907141693504e-05,
      "longitude_deg": 148.13375210405704,
      "height_km": 476.17429834647885,
      "semi_major_axis_km": 6853.353356307937,
      "eccentricity": 0.0001072,
      "inclination_deg": 53.16,
      "raan_deg": 219.6639,
      "arg_perigee_deg": 94.6526,
      "mean_anomaly_deg": 265.4597,
      "mean_motion_rev_day": 15.30199569
    },
    {
      "epoch": "2026-04-15T11:37:34.588704Z",
      "apogee_km": 476.0234477225322,
      "perigee_km": 474.3998894229471,
      "latitude_deg": 4.4890719435880904e-05,
      "longitude_deg": -162.32021644399956,
      "height_km": 476.10146671608544,
      "semi_major_axis_km": 6853.348668572739,
      "eccentricity": 0.00011845,
      "inclination_deg": 53.1598,
      "raan_deg": 215.7197,
      "arg_perigee_deg": 89.4095,
      "mean_anomaly_deg": 270.7042,
      "mean_motion_rev_day": 15.30201139
    },
    {
      "epoch": "2026-04-16T14:16:28.948800Z",
      "apogee_km": 476.003269252612,
      "perigee_km": 474.40918161837635,
      "latitude_deg": -7.492444858562737e-05,
      "longitude_deg": 151.69878377393255,
      "height_km": 476.50621351212203,
      "semi_major_axis_km": 6853.343225435494,
      "eccentricity": 0.0001163,
      "inclination_deg": 53.1593,
      "raan_deg": 210.5597,
      "arg_perigee_deg": 120.2579,
      "mean_anomaly_deg": 239.8536,
      "mean_motion_rev_day": 15.30202962
    },
    {
      "epoch": "2026-04-17T16:55:23.263968Z",
      "apogee_km": 475.76376947322206,
      "perigee_km": 474.66901480236265,
      "latitude_deg": -6.256297444503843e-05,
      "longitude_deg": 105.72396960602241,
      "height_km": 476.24114059970856,
      "semi_major_axis_km": 6853.353392137792,
      "eccentricity": 7.987e-05,
      "inclination_deg": 53.1576,
      "raan_deg": 205.4056,
      "arg_perigee_deg": 103.3368,
      "mean_anomaly_deg": 256.7721,
      "mean_motion_rev_day": 15.30199557
    },
    {
      "epoch": "2026-04-18T13:18:04.704768Z",
      "apogee_km": 476.00573717546376,
      "perigee_km": 474.3244851015588,
      "latitude_deg": 6.401165009902567e-05,
      "longitude_deg": 155.2709922204885,
      "height_km": 476.03987284224735,
      "semi_major_axis_km": 6853.3021111385115,
      "eccentricity": 0.00012266,
      "inclination_deg": 53.1584,
      "raan_deg": 201.4621,
      "arg_perigee_deg": 88.4186,
      "mean_anomaly_deg": 271.6956,
      "mean_motion_rev_day": 15.30216732
    },
    {
      "epoch": "2026-04-19T12:48:52.922304Z",
      "apogee_km": 475.97043428180314,
      "perigee_km": 474.56781618421246,
      "latitude_deg": 1.3674171296186293e-05,
      "longitude_deg": 157.05428687146568,
      "height_km": 476.07197712915683,
      "semi_major_axis_km": 6853.4061252330075,
      "eccentricity": 0.00010233,
      "inclination_deg": 53.1576,
      "raan_deg": 196.912,
      "arg_perigee_deg": 82.1896,
      "mean_anomaly_deg": 277.9221,
      "mean_motion_rev_day": 15.30181896
    },
    {
      "epoch": "2026-04-20T12:19:41.627136Z",
      "apogee_km": 476.01305790932565,
      "perigee_km": 474.4382922338473,
      "latitude_deg": -1.0984916685081846e-05,
      "longitude_deg": 158.83376364795052,
      "height_km": 476.01909702018884,
      "semi_major_axis_km": 6853.362675071586,
      "eccentricity": 0.00011489,
      "inclination_deg": 53.1565,
      "raan_deg": 192.3601,
      "arg_perigee_deg": 82.3764,
      "mean_anomaly_deg": 277.7367,
      "mean_motion_rev_day": 15.30196448
    },
    {
      "epoch": "2026-04-21T08:42:22.252320Z",
      "apogee_km": 475.92059672257074,
      "perigee_km": 474.3218686420514,
      "latitude_deg": -2.2372027777638414e-05,
      "longitude_deg": -151.6163111906811,
      "height_km": 475.8804349588824,
      "semi_major_axis_km": 6853.258232682311,
      "eccentricity": 0.00011664,
      "inclination_deg": 53.1558,
      "raan_deg": 188.4162,
      "arg_perigee_deg": 80.0148,
      "mean_anomaly_deg": 280.0984,
      "mean_motion_rev_day": 15.30231428
    },
    {
      "epoch": "2026-04-22T11:21:17.072928Z",
      "apogee_km": 476.0574516384904,
      "perigee_km": 474.3763239298178,
      "latitude_deg": -6.202384641190485e-05,
      "longitude_deg": 162.40311972476192,
      "height_km": 475.7700149539984,
      "semi_major_axis_km": 6853.353887784154,
      "eccentricity": 0.00012265,
      "inclination_deg": 53.158,
      "raan_deg": 183.2585,
      "arg_perigee_deg": 65.771,
      "mean_anomaly_deg": 294.3418,
      "mean_motion_rev_day": 15.30199391
    },
    {
      "epoch": "2026-04-23T09:18:01.517184Z",
      "apogee_km": 475.884992178404,
      "perigee_km": 474.5021271380765,
      "latitude_deg": 3.861941295321667e-05,
      "longitude_deg": -171.9335686642677,
      "height_km": 476.3712343224811,
      "semi_major_axis_km": 6853.33055965824,
      "eccentricity": 0.00010089,
      "inclination_deg": 53.1578,
      "raan_deg": 179.0082,
      "arg_perigee_deg": 113.8319,
      "mean_anomaly_deg": 246.2788,
      "mean_motion_rev_day": 15.30207204
    },
    {
      "epoch": "2026-04-24T15:05:02.076000Z",
      "apogee_km": 475.92311941977914,
      "perigee_km": 474.4935115869648,
      "latitude_deg": -5.161283279137627e-06,
      "longitude_deg": 94.32900424818202,
      "height_km": 476.068574874656,
      "semi_major_axis_km": 6853.345315503371,
      "eccentricity": 0.0001043,
      "inclination_deg": 53.1603,
      "raan_deg": 173.2463,
      "arg_perigee_deg": 86.9398,
      "mean_anomaly_deg": 273.1722,
      "mean_motion_rev_day": 15.30202262
    },
    {
      "epoch": "2026-04-25T14:35:50.061984Z",
      "apogee_km": 476.1191355532701,
      "perigee_km": 474.30985075907665,
      "latitude_deg": -9.349771960843676e-06,
      "longitude_deg": 96.11330103024852,
      "height_km": 476.0177983400209,
      "semi_major_axis_km": 6853.351493156173,
      "eccentricity": 0.000132,
      "inclination_deg": 53.1592,
      "raan_deg": 168.6962,
      "arg_perigee_deg": 83.9957,
      "mean_anomaly_deg": 276.1194,
      "mean_motion_rev_day": 15.30200193
    },
    {
      "epoch": "2026-04-26T20:22:49.635840Z",
      "apogee_km": 476.2690095946846,
      "perigee_km": 474.0515567257453,
      "latitude_deg": 1.2343257170821161e-05,
      "longitude_deg": 2.3747400668116168,
      "height_km": 476.18747157496307,
      "semi_major_axis_km": 6853.297283160215,
      "eccentricity": 0.00016178,
      "inclination_deg": 53.1579,
      "raan_deg": 162.929,
      "arg_perigee_deg": 96.7234,
      "mean_anomaly_deg": 263.3951,
      "mean_motion_rev_day": 15.30218349
    },
    {
      "epoch": "2026-04-27T15:11:28.638240Z",
      "apogee_km": 476.05590084655523,
      "perigee_km": 474.43713166001635,
      "latitude_deg": -4.716352143628259e-06,
      "longitude_deg": 75.80288445821719,
      "height_km": 475.88937312770435,
      "semi_major_axis_km": 6853.383516253286,
      "eccentricity": 0.0001181,
      "inclination_deg": 53.1589,
      "raan_deg": 159.2922,
      "arg_perigee_deg": 71.6132,
      "mean_anomaly_deg": 288.4997,
      "mean_motion_rev_day": 15.30189468
    },
    {
      "epoch": "2026-04-28T19:24:22.614912Z",
      "apogee_km": 476.24376257081894,
      "perigee_km": 473.2353497626609,
      "latitude_deg": 7.462689708541743e-05,
      "longitude_deg": 5.9544930395994236,
      "height_km": 477.0097471691283,
      "semi_major_axis_km": 6852.87655616674,
      "eccentricity": 0.0002195,
      "inclination_deg": 53.159,
      "raan_deg": 153.8274,
      "arg_perigee_deg": 204.4296,
      "mean_anomaly_deg": 155.6602,
      "mean_motion_rev_day": 15.30359271
    },
    {
      "epoch": "2026-04-28T19:24:22.615776Z",
      "apogee_km": 476.2434199269901,
      "perigee_km": 473.23569240648885,
      "latitude_deg": 7.272518972115517e-05,
      "longitude_deg": 5.954488012839286,
      "height_km": 477.0094352070779,
      "semi_major_axis_km": 6852.87655616674,
      "eccentricity": 0.00021945,
      "inclination_deg": 53.159,
      "raan_deg": 153.8274,
      "arg_perigee_deg": 204.4296,
      "mean_anomaly_deg": 155.6602,
      "mean_motion_rev_day": 15.30359271
    },
    {
      "epoch": "2026-05-02T12:00:02.998944Z",
      "apogee_km": 463.76569003928216,
      "perigee_km": 461.86664144047336,
      "latitude_deg": -40.91008487988272,
      "longitude_deg": -43.625228173798966,
      "height_km": 477.156295692652,
      "semi_major_axis_km": 6840.9531657398775,
      "eccentricity": 0.0001388,
      "inclination_deg": 53.1586,
      "raan_deg": 136.5908,
      "arg_perigee_deg": 87.5771,
      "mean_anomaly_deg": 146.996,
      "mean_motion_rev_day": 15.34362007
    }
  ]
}